ELYSIUM STAR 2 & LFF    
1 43760U 18099C   24171.45032307  .00032452  00000+0  12508-2 0  9999
2 43760  97.5176 239.0630 0005679 245.8396 114.2248 15.26249595303583
